JY1SAT (JO-97)          
1 43803U 18099AX  26068.68634132  .00017774  00000+0  60804-3 0  9996
2 43803  97.4249 131.3625 0004723 256.6795 103.3919 15.30302628398390
STARLINK-35614          
1 66164U 25240U   26068.35730668  .00016717  00000+0  57530-3 0  9990
2 66164  53.1592  64.6241 0001336  89.4676 270.6478 15.30198884 21932
