[{"OBJECT_NAME":"JY1SAT (JO-97)","OBJECT_ID":"2018-099AX","EPOCH":"2026-03-09T16:28:19.890048","MEAN_MOTION":15.30302629,"ECCENTRICITY":0.00047232,"INCLINATION":97.4249,"RA_OF_ASC_NODE":131.3625,"ARG_OF_PERICENTER":256.6795,"MEAN_ANOMALY":103.3919,"EPHEMERIS_TYPE":0,"CLASSIFICATION_TYPE":"U","NORAD_CAT_ID":43803,"ELEMENT_SET_NO":999,"REV_AT_EPOCH":39839,"BSTAR":0.00060804308,"MEAN_MOTION_DOT":0.00017774,"MEAN_MOTION_DDOT":0},{"OBJECT_NAME":"STARLINK-35614","OBJECT_ID":"2025-240U","EPOCH":"2026-03-09T08:34:31.297152","MEAN_MOTION":15.30198884,"ECCENTRICITY":0.00013363,"INCLINATION":53.1592,"RA_OF_ASC_NODE":64.6241,"ARG_OF_PERICENTER":89.4676,"MEAN_ANOMALY":270.6478,"EPHEMERIS_TYPE":0,"CLASSIFICATION_TYPE":"U","NORAD_CAT_ID":66164,"ELEMENT_SET_NO":999,"REV_AT_EPOCH":2193,"BSTAR":0.00057529529,"MEAN_MOTION_DOT":0.00016717,"MEAN_MOTION_DDOT":0}]
